#aV2023 10 16  0  0  0.00000000     288 DD+AD WGS84 FIT  NGA
## 2284  86400.00000000   300.00000000 60233 0.0000000000000
+   32     1  2  3  4  5  6  7  8  9 10 11 12 13 14 15 16 17
+         18 19 20 21 22 23 24 25 26 27 28 29 30 31 32  0  0
+          0  0  0  0  0  0  0  0  0  0  0  0  0  0  0  0  0
+          0  0  0  0  0  0  0  0  0  0  0  0  0  0  0  0  0
+          0  0  0  0  0  0  0  0  0  0  0  0  0  0  0  0  0
++         2  2  2  2  2  2  2  2  2  2  2  2  2  2  2  2  2
++         2  2  2  2  2  2  2  2  2  2  2  2  2  2  2  0  0
++         0  0  0  0  0  0  0  0  0  0  0  0  0  0  0  0  0
++         0  0  0  0  0  0  0  0  0  0  0  0  0  0  0  0  0
++         0  0  0  0  0  0  0  0  0  0  0  0  0  0  0  0  0
%c cc cc ccc ccc cccc cccc cccc cccc ccccc ccccc ccccc ccccc
%c cc cc ccc ccc cccc cccc cccc cccc ccccc ccccc ccccc ccccc
%f  0.0000000  0.000000000  0.00000000000  0.000000000000000
%f  0.0000000  0.000000000  0.00000000000  0.000000000000000
%i    0    0    0    0      0      0      0      0         0
%i    0    0    0    0      0      0      0      0         0
/*      NGA, ST. LOUIS,MO.                                  
/*   EPHEMERIS COMPUTED FROM 2 DAYS OF DATA                 
/*   EPOCHA v8 SMOOTHER                                     
/*   G2139 IERS2010 SATIGS SATAPC                           
*  2023 10 16  8 20  0.00000000
P  1  21787.307283  14795.808645   4300.453683    163.681291                    
V  1   3413.348963   4984.432988 -31570.853894     -0.004171                    
P  2  21218.396922  15991.860984  -1687.680653   -541.408213                    
V  2  -3653.249446    478.600787 -31698.179003      0.047547                    
P  3  12736.408755   9629.162259  21098.263409    -75.842002                    
V  3  -4935.041496  26604.071883  -8995.952787      0.231145                    
P  4  22270.026554   2904.292886  14283.467982    185.850512                    
V  4 -16463.425996   7714.385912  23987.377023      0.107824                    
P  5  -6657.039726 -22099.159289 -13242.502531   -146.695329                    
V  5   3937.983704 -16199.129622  25493.430834     -0.014543                    
P  6   3981.957526 -15094.647023  21539.674372    529.436580                    
V  6  21151.580892  16995.294636   8114.521344     -0.084570                    
P  7  20104.383547    668.998235 -17106.126578     39.087348                    
V  7  16305.715599  15599.084683  18774.622230     -0.102076                    
P  8  14973.535298   9168.476224 -20120.365739   -147.367658                    
V  8 -23006.459375  10519.151854 -11974.144947     -0.019686                    
P  9  25261.879213  -5884.874049   5765.036894    -31.007616                    
V  9  -5816.706090   5409.163661  30486.715250      0.107978                    
P 10 -10851.087262  21342.522828 -10947.512430    -57.531431                    
V 10     99.888470 -14433.345998 -28088.469235     -0.014996                    
P 11  -7886.649118 -20738.617920  14655.714720   -417.345170                    
V 11  15068.343627  10985.351315  23629.521660     -0.172973                    
P 12 -11210.291121 -13015.062389  20005.195439   -436.416214                    
V 12   6947.736662 -25056.547069 -12169.146568     -0.042196                    
P 13  -5033.435397 -14318.478011 -22004.819461    584.562266                    
V 13  26726.650109  -6141.091979  -1927.812968      0.043199                    
P 14  13390.448526 -18430.434107 -13489.479423    215.448457                    
V 14   -636.828856  17455.829193 -24607.176953      0.110544                    
P 15 -16751.971126  -7447.442365 -19781.723227     87.590028                    
V 15  20437.086503 -12850.490565 -12555.528212      0.037325                    
P 16    509.425190  24696.008261  -9434.259122   -438.308479                    
V 16  -5524.050677  10649.745250  28965.980417      0.061101                    
P 17  20899.063203 -13533.469373   9851.209074    723.815411                    
V 17  11894.423515  -1584.493675 -28573.144933     -0.000782                    
P 18 -18571.119044   1179.502848 -19014.142493   -450.310509                    
V 18 -17648.414851 -16390.161147  16035.349588     -0.117021                    
P 19  14242.136096 -15143.212953  16131.839754    385.641847                    
V 19  20772.930817  -3441.484822 -21643.411818      0.052041                    
P 20  -1163.058392 -26608.989196  -1197.816094    406.567331                    
V 20   2961.138319  -1600.510338  31357.175062     -0.019381                    
P 21  19797.578785  17601.862800  -4946.738862    146.649883                    
V 21  -6737.313793  -2132.569570 -30383.006997     -0.008696                    
P 22  10796.734894 -23356.125426  -6693.787962    101.979597                    
V 22    149.049637   9363.139202 -30090.930934     -0.071833                    
P 23 -14718.098317  10068.665203 -19614.333539     83.452737                    
V 23   2123.818177 -24877.299482 -14532.825060      0.058103                    
P 24 -21704.354782 -15686.403479  -1201.495149   -347.335087                    
V 24   2703.833669  -2124.222990 -30838.212204     -0.098073                    
P 25 -15475.828981   1618.252049  21178.867515    472.948677                    
V 25   3420.319898 -27503.603293   4796.708054      0.018209                    
P 26  -3577.357259  26054.678287   1741.266114    222.888886                    
V 26  -3781.337629  -2733.607264  31250.246102     -0.022731                    
P 27   1443.983612  15543.115072 -21696.120549    -55.865178                    
V 27 -25397.638921   9151.851718   5332.314321     -0.057661                    
P 28  -5742.587853  14466.449040  21499.275632    -26.484772                    
V 28 -22038.800233 -16201.173698   5009.638294     -0.069743                    
P 29 -25739.015768   3526.008971   5742.269058   -610.071875                    
V 29   6386.579125  -4209.730062  30871.327806     -0.001822                    
P 30  13122.491158  -9279.981605 -21053.170154   -478.106395                    
V 30  20597.263759  17582.320573   4796.754311      0.037230                    
P 31   2898.947244  19088.363944  17857.404040   -224.706974                    
V 31 -18962.760258 -13585.246896  17822.049760     -0.004444                    
P 32 -17077.679891  16049.767678  12476.383199   -573.316261                    
V 32 -15451.350447   3425.895302 -26134.178209     -0.052547                    
EOF
